CRE (WAAS/PRN 138)      
1 28868U 05036A   19118.89586678 -.00000082  00000-0  00000-0 0  9994
2 28868   0.0094  79.3536 0003158 314.7574  37.6644  1.00272347 20321
CRW (WAAS/PRN 135)      
1 28884U 05041A   19119.51591126  .00000072  00000-0  00000+0 0  9999
2 28884   0.0104 273.9239 0001751 113.5971 242.3812  1.00273289 49493
IOR-W (EGNOS/PRN 126)   
1 28899U 05044A   19118.92638692  .00000004  00000-0  00000-0 0  9998
2 28899   2.8218  24.8857 0004022  40.0302 189.0534  1.00271532 49385
MTSAT-2 (MSAS/PRN 137)  
1 28937U 06004A   19118.85063373 -.00000252  00000-0  00000-0 0  9994
2 28937   0.0356 251.0451 0003517 145.6790 271.0267  1.00269465 48359
QZS-1 (QZSS/PRN 183)    
1 37158U 10045A   19118.85310389 -.00000122  00000-0  00000+0 0  9996
2 37158  41.2861 149.5047 0754778 270.2631 241.0788  1.00289908 31581
GSAT-8 (GAGAN/PRN 127)  
1 37605U 11022A   19119.12203161  .00000077  00000-0  00000+0 0  9997
2 37605   0.0175 218.5806 0003889  89.7694   7.4051  1.00273496 29108
LUCH 5A (SDCM/PRN 140)  
1 37951U 11074B   19119.23924828 -.00000060  00000-0  00000+0 0  9993
2 37951   2.3879 130.6982 0004087 268.9086  69.2252  1.00271441 27053
SES-5 (EGNOS/PRN 136)   
1 38652U 12036A   19119.18793427  .00000027  00000-0  00000+0 0  9996
2 38652   0.0441  90.1104 0002243 315.4053 243.9750  1.00274420 24930
GSAT-10 (GAGAN/PRN 128) 
1 38779U 12051B   19118.97310938 -.00000173  00000-0  00000-0 0  9995
2 38779   0.1081  95.2089 0003084 336.3065 218.4604  1.00272007 23986
LUCH 5B (SDCM/PRN 125)  
1 38977U 12061A   19119.21229786 -.00000136  00000-0  00000+0 0  9992
2 38977   4.9080  70.1936 0007270 322.7317 244.0956  1.00271299 24045
ASTRA 5B (EGNOS/PRN 123)
1 39617U 14011B   19119.18508622  .00000147  00000-0  00000+0 0  9997
2 39617   0.0401 312.5086 0003781  80.9682 281.5343  1.00272991 18736
LUCH 5V (SDCM/PRN 141)  
1 39727U 14023A   19119.24420190 -.00000277  00000-0  00000+0 0  9997
2 39727   1.3194 302.9925 0004350 118.4086 338.1280  1.00269340536394
GSAT-15 (GAGAN/PRN 139) 
1 41028U 15065A   19119.51035233 -.00000265  00000-0  00000+0 0  9998
2 41028   0.0800 103.4898 0002450 311.0335  79.9121  1.00270609 12732
E 117 W B (WAAS/PRN 131)
1 41589U 16038B   19118.94771558 -.00000020  00000-0  00000+0 0  9993
2 41589   0.0135  99.9179 0000147 136.7845 204.1103  1.00270558 10570
QZS-2 (QZSS/PRN 184)    
1 42738U 17028A   19117.84365809 -.00000233  00000-0  00000+0 0  9992
2 42738  43.6859 280.2154 0738348 271.0620 105.4325  1.00252764  6995
